ONEWEB-0092             
1 45437U 20020P   25302.37353874 -.00000360  00000+0 -10512-2 0  9990
2 45437  87.8845  67.0249 0001537  90.2151 269.9153 13.11417470272530
ONEWEB-0085             
1 45438U 20020Q   25302.41001154  .00000518  00000+0  14247-2 0  9999
2 45438  87.8836  67.0287 0001605  98.5706 261.5604 13.11420140272421
ONEWEB-0096             
1 45439U 20020R   25302.41169584  .00000507  00000+0  13948-2 0  9997
2 45439  87.8848  67.0043 0001534 105.4435 254.6862 13.11419519272419
ONEWEB-0037             
1 45440U 20020S   25302.39219846 -.00000117  00000+0 -36496-3 0  9996
2 45440  87.8862  66.9756 0001556  92.7169 267.4137 13.11418167272440
ONEWEB-0042             
1 45441U 20020T   25302.40138333  .00000180  00000+0  47247-3 0  9994
2 45441  87.8843  67.0073 0001517  98.9170 261.2129 13.11420261272419
ONEWEB-0098             
1 45442U 20020U   25302.39728485  .00000049  00000+0  10329-3 0  9991
2 45442  87.8847  67.0202 0001682  99.1147 261.0172 13.11419885272391
ONEWEB-0055             
1 45443U 20020V   25302.38032044 -.00000472  00000+0 -13689-2 0  9993
2 45443  87.8844  67.0242 0001649  99.8370 260.2944 13.11418289272363
ONEWEB-0093             
1 45444U 20020W   25302.35589606  .00000290  00000+0  78186-3 0  9992
2 45444  87.8848  67.0156 0001191 106.5657 253.5602 13.11415740272420
ONEWEB-0029             
1 45445U 20020X   25302.37184249 -.00000367  00000+0 -10717-2 0  9991
2 45445  87.8849  67.0250 0001505 103.7122 256.4173 13.11414795272404
ONEWEB-0068             
1 45446U 20020Y   25302.43190063  .00000310  00000+0  83980-3 0  9999
2 45446  87.8846  67.0015 0001505 105.7981 254.3313 13.11416761272358
ONEWEB-0046             
1 45447U 20020Z   25302.42356094  .00000548  00000+0  15106-2 0  9994
2 45447  87.8845  67.0118 0001341  97.3982 262.7298 13.11417615272362
ONEWEB-0063             
1 45448U 20020AA  25302.37609204 -.00000467  00000+0 -13543-2 0  9998
2 45448  87.8847  67.0194 0001475  91.2211 268.9086 13.11416916272440
ONEWEB-0019             
1 45449U 20020AB  25302.42612094  .00000440  00000+0  12067-2 0  9995
2 45449  87.8840  67.0235 0001643 102.1186 258.0126 13.11415874272290
ONEWEB-0094             
1 45450U 20020AC  25302.35698247  .00000128  00000+0  29565-3 0  9998
2 45450  87.9125  51.7332 0001707 101.3928 258.7395 13.17648039275917
ONEWEB-0087             
1 45451U 20020AD  25302.38612065 -.00000300  00000+0 -88270-3 0  9998
2 45451  87.8859  66.9714 0001464 109.9810 250.1476 13.11419191272335
ONEWEB-0082             
1 45452U 20020AE  25302.38286648 -.00000436  00000+0 -12664-2 0  9996
2 45452  87.8857  66.9970 0001522 107.2291 252.9004 13.11419031272427
ONEWEB-0050             
1 45453U 20020AF  25302.58336806 -.00040062  00000+0 -42676-2 0  9996
2 45453  88.9185 264.6775 0005848  86.7248  16.7434 14.89227418  5690
