[{"OBJECT_NAME":"ONEWEB-0092","OBJECT_ID":"2020-020P","EPOCH":"2025-10-29T08:57:53.747136","MEAN_MOTION":13.1141747,"ECCENTRICITY":0.0001537,"INCLINATION":87.8845,"RA_OF_ASC_NODE":67.0249,"ARG_OF_PERICENTER":90.2151,"MEAN_ANOMALY":269.9153,"EPHEMERIS_TYPE":0,"CLASSIFICATION_TYPE":"U","NORAD_CAT_ID":45437,"ELEMENT_SET_NO":999,"REV_AT_EPOCH":27253,"BSTAR":-0.0010512,"MEAN_MOTION_DOT":-3.6e-6,"MEAN_MOTION_DDOT":0},{"OBJECT_NAME":"ONEWEB-0085","OBJECT_ID":"2020-020Q","EPOCH":"2025-10-29T09:50:24.997056","MEAN_MOTION":13.1142014,"ECCENTRICITY":0.0001605,"INCLINATION":87.8836,"RA_OF_ASC_NODE":67.0287,"ARG_OF_PERICENTER":98.5706,"MEAN_ANOMALY":261.5604,"EPHEMERIS_TYPE":0,"CLASSIFICATION_TYPE":"U","NORAD_CAT_ID":45438,"ELEMENT_SET_NO":999,"REV_AT_EPOCH":27242,"BSTAR":0.0014247,"MEAN_MOTION_DOT":5.18e-6,"MEAN_MOTION_DDOT":0},{"OBJECT_NAME":"ONEWEB-0096","OBJECT_ID":"2020-020R","EPOCH":"2025-10-29T09:52:50.520576","MEAN_MOTION":13.11419519,"ECCENTRICITY":0.0001534,"INCLINATION":87.8848,"RA_OF_ASC_NODE":67.0043,"ARG_OF_PERICENTER":105.4435,"MEAN_ANOMALY":254.6862,"EPHEMERIS_TYPE":0,"CLASSIFICATION_TYPE":"U","NORAD_CAT_ID":45439,"ELEMENT_SET_NO":999,"REV_AT_EPOCH":27241,"BSTAR":0.0013948,"MEAN_MOTION_DOT":5.07e-6,"MEAN_MOTION_DDOT":0},{"OBJECT_NAME":"ONEWEB-0037","OBJECT_ID":"2020-020S","EPOCH":"2025-10-29T09:24:45.946944","MEAN_MOTION":13.11418167,"ECCENTRICITY":0.0001556,"INCLINATION":87.8862,"RA_OF_ASC_NODE":66.9756,"ARG_OF_PERICENTER":92.7169,"MEAN_ANOMALY":267.4137,"EPHEMERIS_TYPE":0,"CLASSIFICATION_TYPE":"U","NORAD_CAT_ID":45440,"ELEMENT_SET_NO":999,"REV_AT_EPOCH":27244,"BSTAR":-0.00036496,"MEAN_MOTION_DOT":-1.17e-6,"MEAN_MOTION_DDOT":0},{"OBJECT_NAME":"ONEWEB-0042","OBJECT_ID":"2020-020T","EPOCH":"2025-10-29T09:37:59.519712","MEAN_MOTION":13.11420261,"ECCENTRICITY":0.0001517,"INCLINATION":87.8843,"RA_OF_ASC_NODE":67.0073,"ARG_OF_PERICENTER":98.917,"MEAN_ANOMALY":261.2129,"EPHEMERIS_TYPE":0,"CLASSIFICATION_TYPE":"U","NORAD_CAT_ID":45441,"ELEMENT_SET_NO":999,"REV_AT_EPOCH":27241,"BSTAR":0.00047247,"MEAN_MOTION_DOT":1.8e-6,"MEAN_MOTION_DDOT":0},{"OBJECT_NAME":"ONEWEB-0098","OBJECT_ID":"2020-020U","EPOCH":"2025-10-29T09:32:05.411040","MEAN_MOTION":13.11419885,"ECCENTRICITY":0.0001682,"INCLINATION":87.8847,"RA_OF_ASC_NODE":67.0202,"ARG_OF_PERICENTER":99.1147,"MEAN_ANOMALY":261.0172,"EPHEMERIS_TYPE":0,"CLASSIFICATION_TYPE":"U","NORAD_CAT_ID":45442,"ELEMENT_SET_NO":999,"REV_AT_EPOCH":27239,"BSTAR":0.00010329,"MEAN_MOTION_DOT":4.9e-7,"MEAN_MOTION_DDOT":0},{"OBJECT_NAME":"ONEWEB-0055","OBJECT_ID":"2020-020V","EPOCH":"2025-10-29T09:07:39.686016","MEAN_MOTION":13.11418289,"ECCENTRICITY":0.0001649,"INCLINATION":87.8844,"RA_OF_ASC_NODE":67.0242,"ARG_OF_PERICENTER":99.837,"MEAN_ANOMALY":260.2944,"EPHEMERIS_TYPE":0,"CLASSIFICATION_TYPE":"U","NORAD_CAT_ID":45443,"ELEMENT_SET_NO":999,"REV_AT_EPOCH":27236,"BSTAR":-0.0013689,"MEAN_MOTION_DOT":-4.72e-6,"MEAN_MOTION_DDOT":0},{"OBJECT_NAME":"ONEWEB-0093","OBJECT_ID":"2020-020W","EPOCH":"2025-10-29T08:32:29.419584","MEAN_MOTION":13.1141574,"ECCENTRICITY":0.0001191,"INCLINATION":87.8848,"RA_OF_ASC_NODE":67.0156,"ARG_OF_PERICENTER":106.5657,"MEAN_ANOMALY":253.5602,"EPHEMERIS_TYPE":0,"CLASSIFICATION_TYPE":"U","NORAD_CAT_ID":45444,"ELEMENT_SET_NO":999,"REV_AT_EPOCH":27242,"BSTAR":0.00078186,"MEAN_MOTION_DOT":2.9e-6,"MEAN_MOTION_DDOT":0},{"OBJECT_NAME":"ONEWEB-0029","OBJECT_ID":"2020-020X","EPOCH":"2025-10-29T08:55:27.191136","MEAN_MOTION":13.11414795,"ECCENTRICITY":0.0001505,"INCLINATION":87.8849,"RA_OF_ASC_NODE":67.025,"ARG_OF_PERICENTER":103.7122,"MEAN_ANOMALY":256.4173,"EPHEMERIS_TYPE":0,"CLASSIFICATION_TYPE":"U","NORAD_CAT_ID":45445,"ELEMENT_SET_NO":999,"REV_AT_EPOCH":27240,"BSTAR":-0.0010717,"MEAN_MOTION_DOT":-3.67e-6,"MEAN_MOTION_DDOT":0},{"OBJECT_NAME":"ONEWEB-0068","OBJECT_ID":"2020-020Y","EPOCH":"2025-10-29T10:21:56.214432","MEAN_MOTION":13.11416761,"ECCENTRICITY":0.0001505,"INCLINATION":87.8846,"RA_OF_ASC_NODE":67.0015,"ARG_OF_PERICENTER":105.7981,"MEAN_ANOMALY":254.3313,"EPHEMERIS_TYPE":0,"CLASSIFICATION_TYPE":"U","NORAD_CAT_ID":45446,"ELEMENT_SET_NO":999,"REV_AT_EPOCH":27235,"BSTAR":0.0008398,"MEAN_MOTION_DOT":3.1e-6,"MEAN_MOTION_DDOT":0},{"OBJECT_NAME":"ONEWEB-0046","OBJECT_ID":"2020-020Z","EPOCH":"2025-10-29T10:09:55.665216","MEAN_MOTION":13.11417615,"ECCENTRICITY":0.0001341,"INCLINATION":87.8845,"RA_OF_ASC_NODE":67.0118,"ARG_OF_PERICENTER":97.3982,"MEAN_ANOMALY":262.7298,"EPHEMERIS_TYPE":0,"CLASSIFICATION_TYPE":"U","NORAD_CAT_ID":45447,"ELEMENT_SET_NO":999,"REV_AT_EPOCH":27236,"BSTAR":0.0015106,"MEAN_MOTION_DOT":5.48e-6,"MEAN_MOTION_DDOT":0},{"OBJECT_NAME":"ONEWEB-0063","OBJECT_ID":"2020-020AA","EPOCH":"2025-10-29T09:01:34.352256","MEAN_MOTION":13.11416916,"ECCENTRICITY":0.0001475,"INCLINATION":87.8847,"RA_OF_ASC_NODE":67.0194,"ARG_OF_PERICENTER":91.2211,"MEAN_ANOMALY":268.9086,"EPHEMERIS_TYPE":0,"CLASSIFICATION_TYPE":"U","NORAD_CAT_ID":45448,"ELEMENT_SET_NO":999,"REV_AT_EPOCH":27244,"BSTAR":-0.0013543,"MEAN_MOTION_DOT":-4.67e-6,"MEAN_MOTION_DDOT":0},{"OBJECT_NAME":"ONEWEB-0019","OBJECT_ID":"2020-020AB","EPOCH":"2025-10-29T10:13:36.849216","MEAN_MOTION":13.11415874,"ECCENTRICITY":0.0001643,"INCLINATION":87.884,"RA_OF_ASC_NODE":67.0235,"ARG_OF_PERICENTER":102.1186,"MEAN_ANOMALY":258.0126,"EPHEMERIS_TYPE":0,"CLASSIFICATION_TYPE":"U","NORAD_CAT_ID":45449,"ELEMENT_SET_NO":999,"REV_AT_EPOCH":27229,"BSTAR":0.0012067,"MEAN_MOTION_DOT":4.4e-6,"MEAN_MOTION_DDOT":0},{"OBJECT_NAME":"ONEWEB-0094","OBJECT_ID":"2020-020AC","EPOCH":"2025-10-29T08:34:03.285408","MEAN_MOTION":13.17648039,"ECCENTRICITY":0.0001707,"INCLINATION":87.9125,"RA_OF_ASC_NODE":51.7332,"ARG_OF_PERICENTER":101.3928,"MEAN_ANOMALY":258.7395,"EPHEMERIS_TYPE":0,"CLASSIFICATION_TYPE":"U","NORAD_CAT_ID":45450,"ELEMENT_SET_NO":999,"REV_AT_EPOCH":27591,"BSTAR":0.00029565,"MEAN_MOTION_DOT":1.28e-6,"MEAN_MOTION_DDOT":0},{"OBJECT_NAME":"ONEWEB-0087","OBJECT_ID":"2020-020AD","EPOCH":"2025-10-29T09:16:00.824160","MEAN_MOTION":13.11419191,"ECCENTRICITY":0.0001464,"INCLINATION":87.8859,"RA_OF_ASC_NODE":66.9714,"ARG_OF_PERICENTER":109.981,"MEAN_ANOMALY":250.1476,"EPHEMERIS_TYPE":0,"CLASSIFICATION_TYPE":"U","NORAD_CAT_ID":45451,"ELEMENT_SET_NO":999,"REV_AT_EPOCH":27233,"BSTAR":-0.0008827,"MEAN_MOTION_DOT":-3.0e-6,"MEAN_MOTION_DDOT":0},{"OBJECT_NAME":"ONEWEB-0082","OBJECT_ID":"2020-020AE","EPOCH":"2025-10-29T09:11:19.663872","MEAN_MOTION":13.11419031,"ECCENTRICITY":0.0001522,"INCLINATION":87.8857,"RA_OF_ASC_NODE":66.997,"ARG_OF_PERICENTER":107.2291,"MEAN_ANOMALY":252.9004,"EPHEMERIS_TYPE":0,"CLASSIFICATION_TYPE":"U","NORAD_CAT_ID":45452,"ELEMENT_SET_NO":999,"REV_AT_EPOCH":27242,"BSTAR":-0.0012664,"MEAN_MOTION_DOT":-4.36e-6,"MEAN_MOTION_DDOT":0},{"OBJECT_NAME":"ONEWEB-0050","OBJECT_ID":"2020-020AF","EPOCH":"2025-10-29T14:00:03.000384","MEAN_MOTION":14.89227418,"ECCENTRICITY":0.0005848,"INCLINATION":88.9185,"RA_OF_ASC_NODE":264.6775,"ARG_OF_PERICENTER":86.7248,"MEAN_ANOMALY":16.7434,"EPHEMERIS_TYPE":0,"CLASSIFICATION_TYPE":"U","NORAD_CAT_ID":45453,"ELEMENT_SET_NO":999,"REV_AT_EPOCH":569,"BSTAR":-0.0042676,"MEAN_MOTION_DOT":-0.00040062,"MEAN_MOTION_DDOT":0}]
